{
  "57925": {
    "noradId": "57925",
    "tle": [
      "1 57925C 23147N   26039.15534722  .00015813  00000+0  11669-2 0   391",
      "2 57925  43.0014 126.5484 0001462 266.3228 144.3131 15.02516789    16"
    ]
  },
  "57926": {
    "noradId": "57926",
    "tle": [
      "1 57926C 23147P   26039.15465278  .00003044  00000+0  22462-3 0   398",
      "2 57926  43.0014 126.5192 0001277 273.3212 151.5764 15.02530736    18"
    ]
  },
  "57928": {
    "noradId": "57928",
    "tle": [
      "1 57928C 23147R   26039.15743056 -.00003232  00000+0 -23848-3 0   393",
      "2 57928  43.0017 126.4135 0001400 273.6268 202.3741 15.02540287    13"
    ]
  },
  "57930": {
    "noradId": "57930",
    "tle": [
      "1 57930C 23147T   26039.15881944  .00080115  00000+0  24859-2 0   390",
      "2 57930  42.9973  80.3470 0014971  24.9854 289.2432 15.32377384    10"
    ]
  },
  "57931": {
    "noradId": "57931",
    "tle": [
      "1 57931C 23147U   26039.15881944  .00015826  00000+0  11676-2 0   391",
      "2 57931  43.0014 126.3631 0001177 258.5296 242.9390 15.02525480    16"
    ]
  },
  "57932": {
    "noradId": "57932",
    "tle": [
      "1 57932C 23147V   26039.15743056 -.00015048  00000+0 -11103-2 0   396",
      "2 57932  43.0014 126.1528 0001506 268.9036 315.2894 15.02552041    19"
    ]
  },
  "57933": {
    "noradId": "57933",
    "tle": [
      "1 57933C 23147W   26039.15534722 -.00031088  00000+0 -22925-2 0   391",
      "2 57933  43.0014 126.2983 0001361 264.4232 254.3098 15.02588580    10"
    ]
  },
  "57935": {
    "noradId": "57935",
    "tle": [
      "1 57935C 23148A   26039.15256944  .00018900  00000+0  63739-3 0   396",
      "2 57935  53.1566 161.3961 0001130  82.1497 197.2061 15.30153081    14"
    ]
  },
  "57936": {
    "noradId": "57936",
    "tle": [
      "1 57936C 23148B   26039.15465278  .00002591  00000+0  87326-4 0   397",
      "2 57936  53.1589 161.6198 0001218  94.2552  33.7449 15.30185569    18"
    ]
  },
  "57937": {
    "noradId": "57937",
    "tle": [
      "1 57937C 23148C   26039.15187500  .00001541  00000+0  51946-4 0   390",
      "2 57937  53.1570 161.3954 0001242  79.1019 178.9449 15.30190181    11"
    ]
  },
  "57938": {
    "noradId": "57938",
    "tle": [
      "1 57938C 23148D   26039.15326389 -.00051802  00000+0 -17447-2 0   394",
      "2 57938  53.1588 151.4155 0001179  86.1382 248.6931 15.30265101    10"
    ]
  },
  "57939": {
    "noradId": "57939",
    "tle": [
      "1 57939C 23148E   26039.15604167  .00008724  00000+0  29404-3 0   398",
      "2 57939  53.1585 161.6671 0001244  79.6380  21.1196 15.30182750    17"
    ]
  },
  "57940": {
    "noradId": "57940",
    "tle": [
      "1 57940C 23148F   26039.15187500  .00001420  00000+0  47877-4 0   398",
      "2 57940  53.1587 161.6733 0001250  88.1592   7.0741 15.30187275    13"
    ]
  },
  "57941": {
    "noradId": "57941",
    "tle": [
      "1 57941C 23148G   26039.15256944 -.00003674  00000+0 -12383-3 0   396",
      "2 57941  53.1581 151.1865 0001394  80.9974 296.7574 15.30192079    10"
    ]
  },
  "57942": {
    "noradId": "57942",
    "tle": [
      "1 57942C 23148H   26039.15465278  .00000917  00000+0  30908-4 0   398",
      "2 57942  53.1580 161.6740 0001266  94.8773 340.8150 15.30188250    14"
    ]
  },
  "57943": {
    "noradId": "57943",
    "tle": [
      "1 57943C 23148J   26039.15881944  .00005046  00000+0  17004-3 0   390",
      "2 57943  53.1591 161.6444 0001301  77.4427  90.8872 15.30189074    19"
    ]
  },
  "57944": {
    "noradId": "57944",
    "tle": [
      "1 57944C 23148K   26039.15673611 -.00005963  00000+0 -20102-3 0   394",
      "2 57944  53.1575 161.4375 0001226  95.4127 171.9697 15.30190594    11"
    ]
  },
  "57945": {
    "noradId": "57945",
    "tle": [
      "1 57945C 23148L   26039.15465278  .00009182  00000+0  30950-3 0   390",
      "2 57945  53.1594 161.5656 0001296  79.3295 118.3845 15.30179503    17"
    ]
  },
  "57946": {
    "noradId": "57946",
    "tle": [
      "1 57946C 23148M   26039.15743056  .00013617  00000+0  45857-3 0   394",
      "2 57946  53.1588 238.6206 0001469  76.8394  18.7685 15.30203689    10"
    ]
  },
  "57947": {
    "noradId": "57947",
    "tle": [
      "1 57947C 23148N   26039.15743056  .00006026  00000+0  20310-3 0   398",
      "2 57947  53.1589 161.6102 0001303  77.5001 100.6349 15.30186332    15"
    ]
  },
  "57949": {
    "noradId": "57949",
    "tle": [
      "1 57949C 23148Q   26039.15534722  .00003221  00000+0  10856-3 0   396",
      "2 57949  53.1593 161.5904 0001207  87.3391  96.7648 15.30185400    17"
    ]
  },
  "57950": {
    "noradId": "57950",
    "tle": [
      "1 57950C 23148R   26039.15465278  .00015338  00000+0  51704-3 0   396",
      "2 57950  53.1584 161.5089 0001347  81.5595 133.6308 15.30170143    12"
    ]
  },
  "57951": {
    "noradId": "57951",
    "tle": [
      "1 57951C 23148S   26039.15326389 -.00000324  00000+0 -10914-4 0   396",
      "2 57951  53.1580 161.4685 0001285  77.3320 153.4637 15.30190316    19"
    ]
  },
  "57952": {
    "noradId": "57952",
    "tle": [
      "1 57952C 23148T   26039.15256944 -.00000214  00000+0 -72053-5 0   397",
      "2 57952  53.1565 161.3209 0001111  90.2088 224.0044 15.30183784    15"
    ]
  },
  "57953": {
    "noradId": "57953",
    "tle": [
      "1 57953C 23148U   26039.15881944  .00004320  00000+0  14563-3 0   392",
      "2 57953  53.1563 151.3803 0001225  88.3490  50.7685 15.30181070    15"
    ]
  },
  "57954": {
    "noradId": "57954",
    "tle": [
      "1 57954C 23148V   26039.15881944  .00000870  00000+0  29329-4 0   396",
      "2 57954  53.1585 151.3414 0001202  90.2596 194.0410 15.30188617    14"
    ]
  },
  "57955": {
    "noradId": "57955",
    "tle": [
      "1 57955C 23148W   26039.15743056  .00007106  00000+0  23950-3 0   390",
      "2 57955  53.1580 151.3877 0001304  86.2046 167.1716 15.30182989    17"
    ]
  },
  "57964": {
    "noradId": "57964",
    "tle": [
      "1 57964C 23151A   26039.15395833 -.00010586  00000+0 -78107-3 0   392",
      "2 57964  43.0013 139.3570 0001445 265.5138 319.1438 15.02548442    11"
    ]
  },
  "57965": {
    "noradId": "57965",
    "tle": [
      "1 57965C 23151B   26039.15881944  .00014465  00000+0  10672-2 0   396",
      "2 57965  43.0018 138.9660 0002130 268.1683 139.0777 15.02525632    19"
    ]
  },
  "57966": {
    "noradId": "57966",
    "tle": [
      "1 57966C 23151C   26039.15187500  .00011312  00000+0  83478-3 0   397",
      "2 57966  43.0018 139.0925 0001503 261.7532  65.8201 15.02520465    18"
    ]
  },
  "57967": {
    "noradId": "57967",
    "tle": [
      "1 57967C 23151D   26039.15812500  .00013765  00000+0  10158-2 0   391",
      "2 57967  43.0010 139.0158 0001296 275.6456 103.7965 15.02516610    13"
    ]
  },
  "57968": {
    "noradId": "57968",
    "tle": [
      "1 57968C 23151E   26039.15604167  .00003096  00000+0  22842-3 0   390",
      "2 57968  43.0011 139.4085 0001973 276.1544 289.7421 15.02528774    10"
    ]
  },
  "57970": {
    "noradId": "57970",
    "tle": [
      "1 57970C 23151G   26039.14145833 -.00009324  00000+0 -22249-3 0   395",
      "2 57970  43.0094 359.1480 0001603 270.0591 152.3239 15.40703826    16"
    ]
  },
  "57971": {
    "noradId": "57971",
    "tle": [
      "1 57971C 23151H   26039.15604167  .00013889  00000+0  10250-2 0   394",
      "2 57971  43.0010 139.4672 0001638 268.3315 267.5331 15.02515517    17"
    ]
  },
  "57972": {
    "noradId": "57972",
    "tle": [
      "1 57972C 23151J   26039.15465278  .00001908  00000+0  14077-3 0   394",
      "2 57972  43.0015 139.6869 0001392 268.2423 169.9315 15.02530932    14"
    ]
  },
  "57973": {
    "noradId": "57973",
    "tle": [
      "1 57973C 23151K   26039.15465278  .00013770  00000+0  10170-2 0   394",
      "2 57973  43.0009 139.5340 0001341 268.6301 235.7784 15.02488302    19"
    ]
  },
  "57974": {
    "noradId": "57974",
    "tle": [
      "1 57974C 23151L   26039.15256944  .00013494  00000+0  99613-3 0   396",
      "2 57974  43.0018 139.0203 0001369 270.0590  85.3925 15.02504910    10"
    ]
  },
  "57975": {
    "noradId": "57975",
    "tle": [
      "1 57975C 23151M   26039.15395833  .00010712  00000+0  79056-3 0   397",
      "2 57975  43.0010 139.6148 0001398 261.2375 197.2410 15.02518707    13"
    ]
  },
  "57976": {
    "noradId": "57976",
    "tle": [
      "1 57976C 23151N   26039.15743056  .00005585  00000+0  41211-3 0   396",
      "2 57976  43.0017 139.1628 0001409 266.6323  18.9467 15.02528173    13"
    ]
  },
  "57977": {
    "noradId": "57977",
    "tle": [
      "1 57977C 23151P   26039.15326389  .00004696  00000+0  34649-3 0   392",
      "2 57977  43.0014 152.6681 0001343 263.6547  66.3852 15.02533779    15"
    ]
  },
  "57978": {
    "noradId": "57978",
    "tle": [
      "1 57978C 23151Q   26039.15881944  .00009846  00000+0  72661-3 0   394",
      "2 57978  43.0015 152.5521 0001602 267.2669 128.9578 15.02519611    11"
    ]
  },
  "57979": {
    "noradId": "57979",
    "tle": [
      "1 57979C 23151R   26039.15326389 -.00000617  00000+0 -45498-4 0   390",
      "2 57979  43.0011 152.5336 0001984 273.5431 110.6243 15.02533361    17"
    ]
  },
  "57980": {
    "noradId": "57980",
    "tle": [
      "1 57980C 23151S   26039.15673611  .00220470  00000+0  12191-2 0   396",
      "2 57980  42.9838  27.6396 0023898 136.8751  58.5226 15.77973929    17"
    ]
  },
  "57981": {
    "noradId": "57981",
    "tle": [
      "1 57981C 23151T   26039.15465278  .00007551  00000+0  55721-3 0   395",
      "2 57981  43.0012 152.4882 0001639 261.2076 148.5210 15.02524300    19"
    ]
  },
  "57982": {
    "noradId": "57982",
    "tle": [
      "1 57982C 23151U   26039.15604167  .00009903  00000+0  73114-3 0   397",
      "2 57982  43.0012 152.4370 0001575 272.7938 162.5369 15.02504565    17"
    ]
  }
}